STARLINK-35599          
1 66102U 25236S   26068.50283930  .00015432  00000+0  53310-3 0  9994
2 66102  53.1587 104.9039 0001284  63.9084 296.2049 15.30135876 22855
2025-313BE              
1 67482U 25313BE  26068.69721505  .00077178  00000+0  26504-2 0  9996
2 67482  97.3989 145.3568 0007208 335.3714  24.7181 15.29801687  7972
